EUTELSAT 8 WEST B       
1 40875U 15039B   25284.91610380 -.00000073  00000+0  00000+0 0  9990
2 40875   0.0682   0.0127 0003766 202.2389 140.3034  1.00271426 37165
EUTELSAT 9B             
1 41310U 16005A   25284.89558705  .00000054  00000+0  00000+0 0  9996
2 41310   0.0691  67.6096 0003707 166.6295 117.9068  1.00272468 35621
EUTELSAT 65 WEST A      
1 41382U 16014A   25284.90475042 -.00000284  00000+0  00000+0 0  9995
2 41382   0.0801  46.1925 0002337 161.6362  73.4488  1.00272059 35048
EUTELSAT 117 WEST B     
1 41589U 16038B   25284.89453293 -.00000019  00000+0  00000+0 0  9998
2 41589   0.0106  75.0134 0000634  29.9566 120.8048  1.00268792 34179
EUTELSAT 172B           
1 42741U 17029B   25284.88040620 -.00000013  00000+0  00000+0 0  9999
2 42741   0.0160 175.2507 0000306  84.9356 249.4938  1.00271879 31242
EUTELSAT 7C             
1 44334U 19034B   25284.89558705  .00000040  00000+0  00000+0 0  9995
2 44334   0.0645 186.4068 0003264   2.8776 160.8700  1.00269297  4342
EUTELSAT 5 WEST B       
1 44624U 19067A   25284.91671046 -.00000050  00000+0  00000+0 0  9992
2 44624   0.0680  19.0651 0003318 189.0098 137.7024  1.00270929 21948
EUTELSAT KONNECT        
1 45027U 20005B   25284.89558705  .00000043  00000+0  00000+0 0  9998
2 45027   0.0673  93.4940 0001827 118.8772 137.9820  1.00276194 21831
